[{"OBJECT_NAME":"STARLINK-35030","OBJECT_ID":"2025-194Q","EPOCH":"2026-03-09T14:27:46.567584","MEAN_MOTION":15.05645173,"ECCENTRICITY":0.0002509,"INCLINATION":97.6021,"RA_OF_ASC_NODE":284.2918,"ARG_OF_PERICENTER":97.3588,"MEAN_ANOMALY":262.7924,"EPHEMERIS_TYPE":0,"CLASSIFICATION_TYPE":"U","NORAD_CAT_ID":65448,"ELEMENT_SET_NO":999,"REV_AT_EPOCH":2963,"BSTAR":-3.8943e-5,"MEAN_MOTION_DOT":-6.23e-6,"MEAN_MOTION_DDOT":0},{"OBJECT_NAME":"COSMOS 2251 DEB","OBJECT_ID":"1993-036BYJ","EPOCH":"2026-02-27T08:25:05.077344","MEAN_MOTION":15.02778291,"ECCENTRICITY":0.0017194,"INCLINATION":74.0208,"RA_OF_ASC_NODE":84.7822,"ARG_OF_PERICENTER":181.9976,"MEAN_ANOMALY":194.0424,"EPHEMERIS_TYPE":0,"CLASSIFICATION_TYPE":"U","NORAD_CAT_ID":47116,"ELEMENT_SET_NO":999,"REV_AT_EPOCH":60660,"BSTAR":0.0017596726,"MEAN_MOTION_DOT":0.00023658,"MEAN_MOTION_DDOT":0}]
